CCSDS_OMM_VERS = 2.0
CREATION_DATE  = 
ORIGINATOR     = 

OBJECT_NAME    = KUIPER-00177
OBJECT_ID      = 2026-030C
CENTER_NAME    = EARTH
REF_FRAME      = TEME
TIME_SYSTEM    = UTC
MEAN_ELEMENT_THEORY = SGP/SGP4

EPOCH          = 2026-03-05T14:04:24.926304
MEAN_MOTION    = 15.36344070
ECCENTRICITY   = .00010928
INCLINATION    = 51.8827
RA_OF_ASC_NODE = 238.8239
ARG_OF_PERICENTER = 16.6199
MEAN_ANOMALY   = 343.4823

EPHEMERIS_TYPE = 0
CLASSIFICATION_TYPE = U
NORAD_CAT_ID   = 67766
ELEMENT_SET_NO = 999
REV_AT_EPOCH   = 446
BSTAR          = .94458171E-3
MEAN_MOTION_DOT = .3376E-3
MEAN_MOTION_DDOT = 0

CCSDS_OMM_VERS = 2.0
CREATION_DATE  = 
ORIGINATOR     = 

OBJECT_NAME    = KUIPER-00178
OBJECT_ID      = 2026-030D
CENTER_NAME    = EARTH
REF_FRAME      = TEME
TIME_SYSTEM    = UTC
MEAN_ELEMENT_THEORY = SGP/SGP4

EPOCH          = 2026-03-05T14:24:37.669536
MEAN_MOTION    = 15.35348062
ECCENTRICITY   = .00061524
INCLINATION    = 51.8836
RA_OF_ASC_NODE = 238.9144
ARG_OF_PERICENTER = 34.5887
MEAN_ANOMALY   = 325.5498

EPHEMERIS_TYPE = 0
CLASSIFICATION_TYPE = U
NORAD_CAT_ID   = 67767
ELEMENT_SET_NO = 999
REV_AT_EPOCH   = 446
BSTAR          = .74484701E-3
MEAN_MOTION_DOT = .25681E-3
MEAN_MOTION_DDOT = 0

CCSDS_OMM_VERS = 2.0
CREATION_DATE  = 
ORIGINATOR     = 

OBJECT_NAME    = KUIPER-00180
OBJECT_ID      = 2026-030E
CENTER_NAME    = EARTH
REF_FRAME      = TEME
TIME_SYSTEM    = UTC
MEAN_ELEMENT_THEORY = SGP/SGP4

EPOCH          = 2026-03-05T13:35:16.865952
MEAN_MOTION    = 15.32152762
ECCENTRICITY   = .00147516
INCLINATION    = 51.8802
RA_OF_ASC_NODE = 239.4193
ARG_OF_PERICENTER = 57.7021
MEAN_ANOMALY   = 302.5391

EPHEMERIS_TYPE = 0
CLASSIFICATION_TYPE = U
NORAD_CAT_ID   = 67768
ELEMENT_SET_NO = 999
REV_AT_EPOCH   = 445
BSTAR          = .90433391E-3
MEAN_MOTION_DOT = .28315E-3
MEAN_MOTION_DDOT = 0

CCSDS_OMM_VERS = 2.0
CREATION_DATE  = 
ORIGINATOR     = 

OBJECT_NAME    = KUIPER-00197
OBJECT_ID      = 2026-030F
CENTER_NAME    = EARTH
REF_FRAME      = TEME
TIME_SYSTEM    = UTC
MEAN_ELEMENT_THEORY = SGP/SGP4

EPOCH          = 2026-03-05T14:07:31.632384
MEAN_MOTION    = 15.36217152
ECCENTRICITY   = .00014113
INCLINATION    = 51.8829
RA_OF_ASC_NODE = 238.8387
ARG_OF_PERICENTER = 51.5362
MEAN_ANOMALY   = 308.5750

EPHEMERIS_TYPE = 0
CLASSIFICATION_TYPE = U
NORAD_CAT_ID   = 67769
ELEMENT_SET_NO = 999
REV_AT_EPOCH   = 446
BSTAR          = .98567225E-3
MEAN_MOTION_DOT = .35108E-3
MEAN_MOTION_DDOT = 0

CCSDS_OMM_VERS = 2.0
CREATION_DATE  = 
ORIGINATOR     = 

OBJECT_NAME    = KUIPER-00198
OBJECT_ID      = 2026-030G
CENTER_NAME    = EARTH
REF_FRAME      = TEME
TIME_SYSTEM    = UTC
MEAN_ELEMENT_THEORY = SGP/SGP4

EPOCH          = 2026-03-05T14:14:35.623968
MEAN_MOTION    = 15.35861436
ECCENTRICITY   = .00031535
INCLINATION    = 51.8809
RA_OF_ASC_NODE = 238.8647
ARG_OF_PERICENTER = 37.5140
MEAN_ANOMALY   = 322.6065

EPHEMERIS_TYPE = 0
CLASSIFICATION_TYPE = U
NORAD_CAT_ID   = 67770
ELEMENT_SET_NO = 999
REV_AT_EPOCH   = 446
BSTAR          = .95639287E-3
MEAN_MOTION_DOT = .3366E-3
MEAN_MOTION_DDOT = 0

CCSDS_OMM_VERS = 2.0
CREATION_DATE  = 
ORIGINATOR     = 

OBJECT_NAME    = KUIPER-00199
OBJECT_ID      = 2026-030H
CENTER_NAME    = EARTH
REF_FRAME      = TEME
TIME_SYSTEM    = UTC
MEAN_ELEMENT_THEORY = SGP/SGP4

EPOCH          = 2026-03-05T14:46:15.140928
MEAN_MOTION    = 15.34180162
ECCENTRICITY   = .00103671
INCLINATION    = 51.8812
RA_OF_ASC_NODE = 239.0046
ARG_OF_PERICENTER = 49.4398
MEAN_ANOMALY   = 310.7488

EPHEMERIS_TYPE = 0
CLASSIFICATION_TYPE = U
NORAD_CAT_ID   = 67771
ELEMENT_SET_NO = 999
REV_AT_EPOCH   = 446
BSTAR          = .7232765E-3
MEAN_MOTION_DOT = .24025E-3
MEAN_MOTION_DDOT = 0

CCSDS_OMM_VERS = 2.0
CREATION_DATE  = 
ORIGINATOR     = 

OBJECT_NAME    = KUIPER-00200
OBJECT_ID      = 2026-030J
CENTER_NAME    = EARTH
REF_FRAME      = TEME
TIME_SYSTEM    = UTC
MEAN_ELEMENT_THEORY = SGP/SGP4

EPOCH          = 2026-03-05T13:55:26.255136
MEAN_MOTION    = 15.36861856
ECCENTRICITY   = .00012604
INCLINATION    = 51.8804
RA_OF_ASC_NODE = 238.7804
ARG_OF_PERICENTER = 220.0205
MEAN_ANOMALY   = 140.0689

EPHEMERIS_TYPE = 0
CLASSIFICATION_TYPE = U
NORAD_CAT_ID   = 67772
ELEMENT_SET_NO = 999
REV_AT_EPOCH   = 446
BSTAR          = .74192595E-3
MEAN_MOTION_DOT = .26859E-3
MEAN_MOTION_DDOT = 0

CCSDS_OMM_VERS = 2.0
CREATION_DATE  = 
ORIGINATOR     = 

OBJECT_NAME    = KUIPER-00203
OBJECT_ID      = 2026-030K
CENTER_NAME    = EARTH
REF_FRAME      = TEME
TIME_SYSTEM    = UTC
MEAN_ELEMENT_THEORY = SGP/SGP4

EPOCH          = 2026-03-05T14:00:01.999872
MEAN_MOTION    = 15.23319871
ECCENTRICITY   = .00111045
INCLINATION    = 51.8815
RA_OF_ASC_NODE = 239.4231
ARG_OF_PERICENTER = 48.3228
MEAN_ANOMALY   = 344.6183

EPHEMERIS_TYPE = 0
CLASSIFICATION_TYPE = U
NORAD_CAT_ID   = 67773
ELEMENT_SET_NO = 999
REV_AT_EPOCH   = 302
BSTAR          = -.66101248E-1
MEAN_MOTION_DOT = -.1442063E-1
MEAN_MOTION_DDOT = 0

CCSDS_OMM_VERS = 2.0
CREATION_DATE  = 
ORIGINATOR     = 

OBJECT_NAME    = KUIPER-00205
OBJECT_ID      = 2026-030L
CENTER_NAME    = EARTH
REF_FRAME      = TEME
TIME_SYSTEM    = UTC
MEAN_ELEMENT_THEORY = SGP/SGP4

EPOCH          = 2026-03-05T14:08:36.314016
MEAN_MOTION    = 15.36205031
ECCENTRICITY   = .00029113
INCLINATION    = 51.8809
RA_OF_ASC_NODE = 238.8383
ARG_OF_PERICENTER = 10.3146
MEAN_ANOMALY   = 349.7900

EPHEMERIS_TYPE = 0
CLASSIFICATION_TYPE = U
NORAD_CAT_ID   = 67774
ELEMENT_SET_NO = 999
REV_AT_EPOCH   = 446
BSTAR          = .91418383E-3
MEAN_MOTION_DOT = .32511E-3
MEAN_MOTION_DDOT = 0

CCSDS_OMM_VERS = 2.0
CREATION_DATE  = 
ORIGINATOR     = 

OBJECT_NAME    = KUIPER-00208
OBJECT_ID      = 2026-030M
CENTER_NAME    = EARTH
REF_FRAME      = TEME
TIME_SYSTEM    = UTC
MEAN_ELEMENT_THEORY = SGP/SGP4

EPOCH          = 2026-03-05T13:31:17.904288
MEAN_MOTION    = 15.32422780
ECCENTRICITY   = .0014381
INCLINATION    = 51.8830
RA_OF_ASC_NODE = 239.4103
ARG_OF_PERICENTER = 49.3151
MEAN_ANOMALY   = 310.9081

EPHEMERIS_TYPE = 0
CLASSIFICATION_TYPE = U
NORAD_CAT_ID   = 67775
ELEMENT_SET_NO = 999
REV_AT_EPOCH   = 445
BSTAR          = .74894061E-3
MEAN_MOTION_DOT = .23567E-3
MEAN_MOTION_DDOT = 0

CCSDS_OMM_VERS = 2.0
CREATION_DATE  = 
ORIGINATOR     = 

OBJECT_NAME    = KUIPER-00209
OBJECT_ID      = 2026-030N
CENTER_NAME    = EARTH
REF_FRAME      = TEME
TIME_SYSTEM    = UTC
MEAN_ELEMENT_THEORY = SGP/SGP4

EPOCH          = 2026-03-05T15:13:12.439200
MEAN_MOTION    = 15.30557280
ECCENTRICITY   = .00130849
INCLINATION    = 51.8818
RA_OF_ASC_NODE = 239.1302
ARG_OF_PERICENTER = 56.1169
MEAN_ANOMALY   = 304.1058

EPHEMERIS_TYPE = 0
CLASSIFICATION_TYPE = U
NORAD_CAT_ID   = 67776
ELEMENT_SET_NO = 999
REV_AT_EPOCH   = 446
BSTAR          = -.20049527E-2
MEAN_MOTION_DOT = -.60155E-3
MEAN_MOTION_DDOT = 0

CCSDS_OMM_VERS = 2.0
CREATION_DATE  = 
ORIGINATOR     = 

OBJECT_NAME    = KUIPER-00213
OBJECT_ID      = 2026-030P
CENTER_NAME    = EARTH
REF_FRAME      = TEME
TIME_SYSTEM    = UTC
MEAN_ELEMENT_THEORY = SGP/SGP4

EPOCH          = 2026-03-05T13:32:15.569376
MEAN_MOTION    = 15.32578120
ECCENTRICITY   = .00149517
INCLINATION    = 51.8797
RA_OF_ASC_NODE = 239.4054
ARG_OF_PERICENTER = 52.7193
MEAN_ANOMALY   = 307.5152

EPHEMERIS_TYPE = 0
CLASSIFICATION_TYPE = U
NORAD_CAT_ID   = 67777
ELEMENT_SET_NO = 999
REV_AT_EPOCH   = 445
BSTAR          = .1010628E-2
MEAN_MOTION_DOT = .32137E-3
MEAN_MOTION_DDOT = 0

